STARLINK-1928
1 16758C 20074V   21326.14152772  .00003969  00000-0  26603-3 0  3267
2 16758  53.0520 168.1165 0001854  77.1788 227.9700 15.06379321    16
